NORAD_CAT_ID,OBJECT_NAME,OBJECT_TYPE,EPOCH,MEAN_MOTION,ECCENTRICITY,INCLINATION,RA_OF_ASC_NODE,ARG_OF_PERICENTER,MEAN_ANOMALY,BSTAR,MEAN_MOTION_DOT,MEAN_MOTION_DDOT,TLE_LINE0,TLE_LINE1,TLE_LINE2,SEMIMAJOR_AXIS,PERIOD,APOGEE,PERIGEE,DECAYED
52643.0,STARLINK-3963,PAYLOAD,2022-10-03 14:05:02,15.08858612,0.0001974,53.2181,124.5072,50.1086,310.008,0.00010605,1.401e-05,0.0,0 STARLINK-3963,1 52643U 22052AX  22276.58683050  .00001401  00000-0  10605-3 0  9996,2 52643  53.2181 124.5072 0001974  50.1086 310.0080 15.08858612 22330,6917.824000000001,95.436,541.054,538.323,0.0
52643.0,STARLINK-3963,PAYLOAD,2022-10-03 20:26:34,15.08859118,0.0002004,53.2187,123.3166,50.0113,310.1055,2.9129e-05,1.76e-06,0.0,0 STARLINK-3963,1 52643U 22052AX  22276.85178997  .00000176  00000-0  29129-4 0  9995,2 52643  53.2187 123.3166 0002004  50.0113 310.1055 15.08859118 21998,6917.821999999999,95.436,541.073,538.3009999999998,0.0
52643.0,STARLINK-3963,PAYLOAD,2022-10-04 20:17:24,15.08812373,0.0001643,53.218,118.8565,32.0405,328.0687,-0.00025582,-4.354e-05,0.0,0 STARLINK-3963,1 52643U 22052AX  22277.84542231 -.00004354  00000-0 -25582-3 0  9993,2 52643  53.2180 118.8565 0001643  32.0405 328.0687 15.08812373 22144,6917.965,95.439,540.966,538.693,0.0
52643.0,STARLINK-3963,PAYLOAD,2022-10-04 23:28:08,15.088413,0.0001902,53.2185,118.2616,49.1721,310.9436,2.1459e-05,5.3e-07,0.0,0 STARLINK-3963,1 52643U 22052AX  22277.97787713  .00000053  00000-0  21459-4 0  9993,2 52643  53.2185 118.2616 0001902  49.1721 310.9436 15.08841300 22546,6917.876,95.437,541.057,538.4259999999998,0.0
52643.0,STARLINK-3963,PAYLOAD,2022-10-05 12:11:13,15.08840037,0.0001841,53.2169,115.8827,46.4771,313.6374,-7.8948e-05,-1.544e-05,0.0,0 STARLINK-3963,1 52643U 22052AX  22278.50780041 -.00001544  00000-0 -78948-4 0  9993,2 52643  53.2169 115.8827 0001841  46.4771 313.6374 15.08840037 22246,6917.88,95.438,541.019,538.472,0.0
52643.0,STARLINK-3963,PAYLOAD,2022-10-05 20:08:09,15.08838026,0.0001913,53.2194,114.3968,49.7486,310.3674,-8.8679e-05,-1.699e-05,0.0,0 STARLINK-3963,1 52643U 22052AX  22278.83900241 -.00001699  00000-0 -88679-4 0  9998,2 52643  53.2194 114.3968 0001913  49.7486 310.3674 15.08838026 22672,6917.886,95.438,541.075,538.428,0.0
52643.0,STARLINK-3963,PAYLOAD,2022-10-06 12:02:01,15.08827161,0.0001915,53.2195,111.4231,47.7791,312.3363,2.7381e-05,1.48e-06,0.0,0 STARLINK-3963,1 52643U 22052AX  22279.50140711  .00000148  00000-0  27381-4 0  9990,2 52643  53.2195 111.4231 0001915  47.7791 312.3363 15.08827161 22397,6917.92,95.438,541.109,538.46,0.0
52643.0,STARLINK-3963,PAYLOAD,2022-10-06 19:58:57,15.08852481,0.0001663,53.2194,109.9374,46.5785,313.5346,-0.00023787,-4.073e-05,0.0,0 STARLINK-3963,1 52643U 22052AX  22279.83260422 -.00004073  00000-0 -23787-3 0  9996,2 52643  53.2194 109.9374 0001663  46.5785 313.5346 15.08852481 22449,6917.842,95.437,540.8580000000002,538.557,0.0
52643.0,STARLINK-3963,PAYLOAD,2022-10-06 23:09:43,15.08834386,0.0001909,53.2205,109.3423,48.495,311.6206,8.5359e-05,1.07e-05,0.0,0 STARLINK-3963,1 52643U 22052AX  22279.96508405  .00001070  00000-0  85359-4 0  9992,2 52643  53.2205 109.3423 0001909  48.4950 311.6206 15.08834386 22841,6917.898,95.438,541.0830000000002,538.442,0.0
52643.0,STARLINK-3963,PAYLOAD,2022-10-07 05:31:15,15.08839787,0.000188,53.2198,108.1529,45.5685,314.5461,0.00011735,1.58e-05,0.0,0 STARLINK-3963,1 52643U 22052AX  22280.23004093  .00001580  00000-0  11735-3 0  9990,2 52643  53.2198 108.1529 0001880  45.5685 314.5461 15.08839787 22505,6917.880999999999,95.438,541.047,538.445,0.0
52643.0,STARLINK-3963,PAYLOAD,2022-10-07 19:49:43,15.08838657,0.0001945,53.2204,105.4769,46.1497,313.9655,0.00011331,1.516e-05,0.0,0 STARLINK-3963,1 52643U 22052AX  22280.82620304  .00001516  00000-0  11331-3 0  9995,2 52643  53.2204 105.4769 0001945  46.1497 313.9655 15.08838657 22591,6917.884,95.438,541.095,538.404,0.0
52643.0,STARLINK-3963,PAYLOAD,2022-10-08 00:35:53,15.08829519,0.0001666999999999,53.2192,104.5838,54.7071,305.4077,0.00025208,3.725e-05,0.0,0 STARLINK-3963,1 52643U 22052AX  22281.02492479  .00003725  00000-0  25208-3 0  9990,2 52643  53.2192 104.5838 0001667  54.7071 305.4077 15.08829519 23006,6917.9119999999975,95.438,540.931,538.624,0.0
52643.0,STARLINK-3963,PAYLOAD,2022-10-08 11:43:36,15.08833034,0.0002118,53.2186,102.501,47.6016,312.5155,5.734e-05,6.24e-06,0.0,0 STARLINK-3963,1 52643U 22052AX  22281.48861127  .00000624  00000-0  57340-4 0  9998,2 52643  53.2186 102.5010 0002118  47.6016 312.5155 15.08833034 22698,6917.901999999999,95.438,541.232,538.3009999999998,0.0
52643.0,STARLINK-3963,PAYLOAD,2022-10-08 19:40:31,15.08840281,0.0001747,53.2186,101.0153,43.9188,316.1943,8.951799999999999e-05,1.137e-05,0.0,0 STARLINK-3963,1 52643U 22052AX  22281.81980644  .00001137  00000-0  89518-4 0  9993,2 52643  53.2186 101.0153 0001747  43.9188 316.1943 15.08840281 22749,6917.88,95.438,540.953,538.536,0.0
52643.0,STARLINK-3963,PAYLOAD,2022-10-09 05:12:49,15.08843604,0.0001774,53.2187,99.2311,43.7911,316.3221,9.6964e-05,1.256e-05,0.0,0 STARLINK-3963,1 52643U 22052AX  22282.21724389  .00001256  00000-0  96964-4 0  9995,2 52643  53.2187  99.2311 0001774  43.7911 316.3221 15.08843604 23188,6917.869000000002,95.437,540.962,538.507,0.0
52643.0,STARLINK-3963,PAYLOAD,2022-10-09 19:31:18,15.08837913,0.0001655,53.2196,96.5561,51.8804,308.2337,0.00018073,2.589e-05,0.0,0 STARLINK-3963,1 52643U 22052AX  22282.81340373  .00002589  00000-0  18073-3 0  9992,2 52643  53.2196  96.5561 0001655  51.8804 308.2337 15.08837913 22895,6917.887,95.438,540.8969999999998,538.607,0.0
52643.0,STARLINK-3963,PAYLOAD,2022-10-10 11:25:09,15.08844626,0.0001647,53.2186,93.5794,44.8801,315.2324,0.00014123,1.961e-05,0.0,0 STARLINK-3963,1 52643U 22052AX  22283.47580120  .00001961  00000-0  14123-3 0  9996,2 52643  53.2186  93.5794 0001647  44.8801 315.2324 15.08844626 22993,6917.866,95.437,540.871,538.592,0.0
52643.0,STARLINK-3963,PAYLOAD,2022-10-10 17:46:41,15.08844016,0.0001949,53.2179,92.3923,41.6665,318.4475,0.00018094,2.593e-05,0.0,0 STARLINK-3963,1 52643U 22052AX  22283.74076184  .00002593  00000-0  18094-3 0  9999,2 52643  53.2179  92.3923 0001949  41.6665 318.4475 15.08844016 23035,6917.868,95.437,541.081,538.385,0.0
52643.0,STARLINK-3963,PAYLOAD,2022-10-11 11:15:56,15.08833397,0.0002024,53.2182,89.1215,43.7676,316.3476,-5.549199999999999e-06,-3.77e-06,0.0,0 STARLINK-3963,1 52643U 22052AX  22284.46940956 -.00000377  00000-0 -55492-5 0  9991,2 52643  53.2182  89.1215 0002024  43.7676 316.3476 15.08833397 23529,6917.901,95.438,541.1659999999998,538.365,0.0
52643.0,STARLINK-3963,PAYLOAD,2022-10-11 12:51:20,15.08833056,0.0002029999999999,53.2184,88.824,44.1389,315.9765,-1.4799e-05,-5.24e-06,0.0,0 STARLINK-3963,1 52643U 22052AX  22284.53564987 -.00000524  00000-0 -14799-4 0  9993,2 52643  53.2184  88.8240 0002030  44.1389 315.9765 15.08833056 23155,6917.901999999999,95.438,541.1709999999998,538.362,0.0
52643.0,STARLINK-3963,PAYLOAD,2022-10-12 17:28:14,15.08879042,0.0002551,53.22,83.4725,48.5099,311.6112,-0.0003551,-5.942e-05,0.0,0 STARLINK-3963,1 52643U 22052AX  22285.72794561 -.00005942  00000-0 -35510-3 0  9990,2 52643  53.2200  83.4725 0002551  48.5099 311.6112 15.08879042 23713,6917.761,95.435,541.391,537.861,0.0
52643.0,STARLINK-3963,PAYLOAD,2022-10-12 22:14:25,15.0884476,0.0002002,53.219,82.5798,46.8583,313.2576,3.2607e-05,2.31e-06,0.0,0 STARLINK-3963,1 52643U 22052AX  22285.92667892  .00000231  00000-0  32607-4 0  9997,2 52643  53.2190  82.5798 0002002  46.8583 313.2576 15.08844760 23745,6917.866,95.437,541.116,538.346,0.0
52643.0,STARLINK-3963,PAYLOAD,2022-10-13 10:57:30,15.08831193,0.0002044,53.219,80.2007,42.2833,317.8317,0.0001028,1.348e-05,0.0,0 STARLINK-3963,1 52643U 22052AX  22286.45660699  .00001348  00000-0  10280-3 0  9996,2 52643  53.2190  80.2007 0002044  42.2833 317.8317 15.08831193 23443,6917.906999999997,95.438,541.186,538.3580000000002,0.0
52643.0,STARLINK-3963,PAYLOAD,2022-10-13 17:19:03,15.08836963,0.0002084,53.219,79.0114,43.238,316.8776,0.00013653,1.885e-05,0.0,0 STARLINK-3963,1 52643U 22052AX  22286.72156342  .00001885  00000-0  13653-3 0  9994,2 52643  53.2190  79.0114 0002084  43.2380 316.8776 15.08836963 23482,6917.89,95.438,541.196,538.313,0.0
52643.0,STARLINK-3963,PAYLOAD,2022-10-13 22:05:12,15.08838689,0.0001926,53.2196,78.1192,27.8634,332.2461,9.1048e-05,1.161e-05,0.0,0 STARLINK-3963,1 52643U 22052AX  22286.92028389  .00001161  00000-0  91048-4 0  9997,2 52643  53.2196  78.1192 0001926  27.8634 332.2461 15.08838689 23893,6917.884,95.438,541.082,538.4169999999998,0.0
52643.0,STARLINK-3963,PAYLOAD,2022-10-14 09:12:55,15.08830164,0.0001903,53.2153,76.0396,36.4134,323.6987,8.4337e-05,1.054e-05,0.0,0 STARLINK-3963,1 52643U 22052AX  22287.38397229  .00001054  00000-0  84337-4 0  9994,2 52643  53.2153  76.0396 0001903  36.4134 323.6987 15.08830164 23960,6917.91,95.438,541.092,538.4590000000002,0.0
52643.0,STARLINK-3963,PAYLOAD,2022-10-14 12:23:41,15.08835036,0.0002029,53.2182,75.4435,34.9831,325.1294,-1.1455999999999997e-05,-4.71e-06,0.0,0 STARLINK-3963,1 52643U 22052AX  22287.51645090 -.00000471  00000-0 -11456-4 0  9997,2 52643  53.2182  75.4435 0002029  34.9831 325.1294 15.08835036 23608,6917.896,95.438,541.164,538.357,0.0
52643.0,STARLINK-3963,PAYLOAD,2022-10-14 17:09:50,15.08839853,0.0002102,53.2187,74.5498,18.6264,341.4805,0.0001022999999999,1.34e-05,0.0,0 STARLINK-3963,1 52643U 22052AX  22287.71516471  .00001340  00000-0  10230-3 0  9991,2 52643  53.2187  74.5498 0002102  18.6264 341.4805 15.08839853 24019,6917.880999999999,95.438,541.2,538.2919999999998,0.0
52643.0,STARLINK-3963,PAYLOAD,2022-10-14 20:20:36,15.08843256,0.000208,53.2189,73.9556,36.0927,324.0205,0.00010474,1.379e-05,0.0,0 STARLINK-3963,1 52643U 22052AX  22287.84764214  .00001379  00000-0  10474-3 0  9997,2 52643  53.2189  73.9556 0002080  36.0927 324.0205 15.08843256 23656,6917.87,95.437,541.174,538.297,0.0
